CCSDS_OMM_VERS = 2.0
CREATION_DATE  = 
ORIGINATOR     = 

OBJECT_NAME    = HTV-X1
OBJECT_ID      = 2025-241A
CENTER_NAME    = EARTH
REF_FRAME      = TEME
TIME_SYSTEM    = UTC
MEAN_ELEMENT_THEORY = SGP/SGP4

EPOCH          = 2026-03-26T06:42:07.708896
MEAN_MOTION    = 15.32414370
ECCENTRICITY   = .00073692
INCLINATION    = 51.6382
RA_OF_ASC_NODE = 353.1396
ARG_OF_PERICENTER = 235.7055
MEAN_ANOMALY   = 124.3229

EPHEMERIS_TYPE = 0
CLASSIFICATION_TYPE = U
NORAD_CAT_ID   = 66174
ELEMENT_SET_NO = 999
REV_AT_EPOCH   = 2348
BSTAR          = .85497414E-4
MEAN_MOTION_DOT = .2346E-4
MEAN_MOTION_DDOT = 0

CCSDS_OMM_VERS = 2.0
CREATION_DATE  = 
ORIGINATOR     = 

OBJECT_NAME    = SZ-21 MODULE
OBJECT_ID      = 2025-246C
CENTER_NAME    = EARTH
REF_FRAME      = TEME
TIME_SYSTEM    = UTC
MEAN_ELEMENT_THEORY = SGP/SGP4

EPOCH          = 2026-03-25T09:52:53.814144
MEAN_MOTION    = 15.69739008
ECCENTRICITY   = .00010026
INCLINATION    = 41.4741
RA_OF_ASC_NODE = 106.4894
ARG_OF_PERICENTER = 208.3621
MEAN_ANOMALY   = 151.7166

EPHEMERIS_TYPE = 0
CLASSIFICATION_TYPE = U
NORAD_CAT_ID   = 66515
ELEMENT_SET_NO = 999
REV_AT_EPOCH   = 2054
BSTAR          = .28093455E-3
MEAN_MOTION_DOT = .3423E-3
MEAN_MOTION_DDOT = 0

CCSDS_OMM_VERS = 2.0
CREATION_DATE  = 
ORIGINATOR     = 

OBJECT_NAME    = SHENZHOU-22
OBJECT_ID      = 2025-272A
CENTER_NAME    = EARTH
REF_FRAME      = TEME
TIME_SYSTEM    = UTC
MEAN_ELEMENT_THEORY = SGP/SGP4

EPOCH          = 2026-03-26T06:50:07.219392
MEAN_MOTION    = 15.61506584
ECCENTRICITY   = .00043858
INCLINATION    = 41.4667
RA_OF_ASC_NODE = 107.1208
ARG_OF_PERICENTER = 26.4822
MEAN_ANOMALY   = 333.6240

EPHEMERIS_TYPE = 0
CLASSIFICATION_TYPE = U
NORAD_CAT_ID   = 66645
ELEMENT_SET_NO = 999
REV_AT_EPOCH   = 28028
BSTAR          = .23787664E-3
MEAN_MOTION_DOT = .20686E-3
MEAN_MOTION_DDOT = 0

CCSDS_OMM_VERS = 2.0
CREATION_DATE  = 
ORIGINATOR     = 

OBJECT_NAME    = SOYUZ-MS 28
OBJECT_ID      = 2025-275A
CENTER_NAME    = EARTH
REF_FRAME      = TEME
TIME_SYSTEM    = UTC
MEAN_ELEMENT_THEORY = SGP/SGP4

EPOCH          = 2026-03-26T03:56:25.626336
MEAN_MOTION    = 15.48550942
ECCENTRICITY   = .00062355
INCLINATION    = 51.6341
RA_OF_ASC_NODE = 350.9181
ARG_OF_PERICENTER = 233.8862
MEAN_ANOMALY   = 126.1549

EPHEMERIS_TYPE = 0
CLASSIFICATION_TYPE = U
NORAD_CAT_ID   = 66664
ELEMENT_SET_NO = 999
REV_AT_EPOCH   = 55771
BSTAR          = .25199987E-3
MEAN_MOTION_DOT = .13248E-3
MEAN_MOTION_DDOT = 0

CCSDS_OMM_VERS = 2.0
CREATION_DATE  = 
ORIGINATOR     = 

OBJECT_NAME    = DUPLEX
OBJECT_ID      = 1998-067XS
CENTER_NAME    = EARTH
REF_FRAME      = TEME
TIME_SYSTEM    = UTC
MEAN_ELEMENT_THEORY = SGP/SGP4

EPOCH          = 2026-03-26T00:28:36.677280
MEAN_MOTION    = 15.57222315
ECCENTRICITY   = .00032159
INCLINATION    = 51.6300
RA_OF_ASC_NODE = 347.7072
ARG_OF_PERICENTER = 183.4701
MEAN_ANOMALY   = 176.6269

EPHEMERIS_TYPE = 0
CLASSIFICATION_TYPE = U
NORAD_CAT_ID   = 66906
ELEMENT_SET_NO = 999
REV_AT_EPOCH   = 1767
BSTAR          = .35962218E-3
MEAN_MOTION_DOT = .26281E-3
MEAN_MOTION_DDOT = 0

CCSDS_OMM_VERS = 2.0
CREATION_DATE  = 
ORIGINATOR     = 

OBJECT_NAME    = ISS OBJECT XT
OBJECT_ID      = 1998-067XT
CENTER_NAME    = EARTH
REF_FRAME      = TEME
TIME_SYSTEM    = UTC
MEAN_ELEMENT_THEORY = SGP/SGP4

EPOCH          = 2026-03-26T02:38:54.121632
MEAN_MOTION    = 15.75161694
ECCENTRICITY   = .00056346
INCLINATION    = 51.6253
RA_OF_ASC_NODE = 341.5278
ARG_OF_PERICENTER = 185.9249
MEAN_ANOMALY   = 174.1684

EPHEMERIS_TYPE = 0
CLASSIFICATION_TYPE = U
NORAD_CAT_ID   = 66907
ELEMENT_SET_NO = 999
REV_AT_EPOCH   = 1776
BSTAR          = .12093711E-2
MEAN_MOTION_DOT = .188746E-2
MEAN_MOTION_DDOT = 0

CCSDS_OMM_VERS = 2.0
CREATION_DATE  = 
ORIGINATOR     = 

OBJECT_NAME    = ISS OBJECT XU
OBJECT_ID      = 1998-067XU
CENTER_NAME    = EARTH
REF_FRAME      = TEME
TIME_SYSTEM    = UTC
MEAN_ELEMENT_THEORY = SGP/SGP4

EPOCH          = 2026-03-26T02:34:02.015328
MEAN_MOTION    = 15.75375865
ECCENTRICITY   = .00057921
INCLINATION    = 51.6242
RA_OF_ASC_NODE = 341.5012
ARG_OF_PERICENTER = 185.7091
MEAN_ANOMALY   = 174.3843

EPHEMERIS_TYPE = 0
CLASSIFICATION_TYPE = U
NORAD_CAT_ID   = 66908
ELEMENT_SET_NO = 999
REV_AT_EPOCH   = 1776
BSTAR          = .12505772E-2
MEAN_MOTION_DOT = .197242E-2
MEAN_MOTION_DDOT = 0

CCSDS_OMM_VERS = 2.0
CREATION_DATE  = 
ORIGINATOR     = 

OBJECT_NAME    = SILVERSAT
OBJECT_ID      = 1998-067XV
CENTER_NAME    = EARTH
REF_FRAME      = TEME
TIME_SYSTEM    = UTC
MEAN_ELEMENT_THEORY = SGP/SGP4

EPOCH          = 2026-03-26T01:39:57.278016
MEAN_MOTION    = 15.80138223
ECCENTRICITY   = .00065491
INCLINATION    = 51.6220
RA_OF_ASC_NODE = 340.4900
ARG_OF_PERICENTER = 190.6465
MEAN_ANOMALY   = 169.4399

EPHEMERIS_TYPE = 0
CLASSIFICATION_TYPE = U
NORAD_CAT_ID   = 66909
ELEMENT_SET_NO = 999
REV_AT_EPOCH   = 1777
BSTAR          = .13650058E-2
MEAN_MOTION_DOT = .268808E-2
MEAN_MOTION_DDOT = 0

CCSDS_OMM_VERS = 2.0
CREATION_DATE  = 
ORIGINATOR     = 

OBJECT_NAME    = ISS OBJECT XW
OBJECT_ID      = 1998-067XW
CENTER_NAME    = EARTH
REF_FRAME      = TEME
TIME_SYSTEM    = UTC
MEAN_ELEMENT_THEORY = SGP/SGP4

EPOCH          = 2026-03-26T02:45:45.008928
MEAN_MOTION    = 15.73866455
ECCENTRICITY   = .00060726
INCLINATION    = 51.6240
RA_OF_ASC_NODE = 341.5525
ARG_OF_PERICENTER = 184.4590
MEAN_ANOMALY   = 175.6356

EPHEMERIS_TYPE = 0
CLASSIFICATION_TYPE = U
NORAD_CAT_ID   = 66910
ELEMENT_SET_NO = 999
REV_AT_EPOCH   = 1776
BSTAR          = .11683659E-2
MEAN_MOTION_DOT = .172036E-2
MEAN_MOTION_DDOT = 0

CCSDS_OMM_VERS = 2.0
CREATION_DATE  = 
ORIGINATOR     = 

OBJECT_NAME    = ISS OBJECT XX
OBJECT_ID      = 1998-067XX
CENTER_NAME    = EARTH
REF_FRAME      = TEME
TIME_SYSTEM    = UTC
MEAN_ELEMENT_THEORY = SGP/SGP4

EPOCH          = 2026-03-26T02:02:12.634944
MEAN_MOTION    = 15.86004420
ECCENTRICITY   = .00081404
INCLINATION    = 51.6196
RA_OF_ASC_NODE = 339.0611
ARG_OF_PERICENTER = 194.5249
MEAN_ANOMALY   = 165.5522

EPHEMERIS_TYPE = 0
CLASSIFICATION_TYPE = U
NORAD_CAT_ID   = 66911
ELEMENT_SET_NO = 999
REV_AT_EPOCH   = 1778
BSTAR          = .14913528E-2
MEAN_MOTION_DOT = .39317E-2
MEAN_MOTION_DDOT = 0

CCSDS_OMM_VERS = 2.0
CREATION_DATE  = 
ORIGINATOR     = 

OBJECT_NAME    = ISS OBJECT XY
OBJECT_ID      = 1998-067XY
CENTER_NAME    = EARTH
REF_FRAME      = TEME
TIME_SYSTEM    = UTC
MEAN_ELEMENT_THEORY = SGP/SGP4

EPOCH          = 2026-03-26T02:48:10.944576
MEAN_MOTION    = 15.66993563
ECCENTRICITY   = .00041511
INCLINATION    = 51.6274
RA_OF_ASC_NODE = 343.8421
ARG_OF_PERICENTER = 183.5421
MEAN_ANOMALY   = 176.5546

EPHEMERIS_TYPE = 0
CLASSIFICATION_TYPE = U
NORAD_CAT_ID   = 66912
ELEMENT_SET_NO = 999
REV_AT_EPOCH   = 1772
BSTAR          = .90497026E-3
MEAN_MOTION_DOT = .98883E-3
MEAN_MOTION_DDOT = 0

CCSDS_OMM_VERS = 2.0
CREATION_DATE  = 
ORIGINATOR     = 

OBJECT_NAME    = KNACKSAT-2
OBJECT_ID      = 1998-067XZ
CENTER_NAME    = EARTH
REF_FRAME      = TEME
TIME_SYSTEM    = UTC
MEAN_ELEMENT_THEORY = SGP/SGP4

EPOCH          = 2026-03-26T00:18:49.860576
MEAN_MOTION    = 15.53163580
ECCENTRICITY   = .00099022
INCLINATION    = 51.6321
RA_OF_ASC_NODE = 350.6612
ARG_OF_PERICENTER = 244.8689
MEAN_ANOMALY   = 115.1274

EPHEMERIS_TYPE = 0
CLASSIFICATION_TYPE = U
NORAD_CAT_ID   = 67683
ELEMENT_SET_NO = 999
REV_AT_EPOCH   = 732
BSTAR          = .5727971E-3
MEAN_MOTION_DOT = .3637E-3
MEAN_MOTION_DDOT = 0

